<?xml version="1.0" encoding="UTF-8"?>
<ndm xmlns:xsi="http://www.w3.org/2001/XMLSchema-instance" xsi:noNamespaceSchemaLocation="https://sanaregistry.org/r/ndmxml_unqualified/ndmxml-2.0.0-master-2.0.xsd">
<omm id="CCSDS_OMM_VERS" version="2.0">
<header><CREATION_DATE/><ORIGINATOR/></header><body><segment><metadata><OBJECT_NAME>ONEWEB-0555</OBJECT_NAME><OBJECT_ID>2023-043M</OBJECT_ID><CENTER_NAME>EARTH</CENTER_NAME><REF_FRAME>TEME</REF_FRAME><TIME_SYSTEM>UTC</TIME_SYSTEM><MEAN_ELEMENT_THEORY>SGP4</MEAN_ELEMENT_THEORY></metadata><data><meanElements><EPOCH>2023-11-01T22:00:00.999936</EPOCH><MEAN_MOTION>13.80067371</MEAN_MOTION><ECCENTRICITY>.0005313</ECCENTRICITY><INCLINATION>87.5844</INCLINATION><RA_OF_ASC_NODE>60.0666</RA_OF_ASC_NODE><ARG_OF_PERICENTER>77.8565</ARG_OF_PERICENTER><MEAN_ANOMALY>60.1427</MEAN_ANOMALY></meanElements><tleParameters><EPHEMERIS_TYPE>0</EPHEMERIS_TYPE><CLASSIFICATION_TYPE>U</CLASSIFICATION_TYPE><NORAD_CAT_ID>56057</NORAD_CAT_ID><ELEMENT_SET_NO>999</ELEMENT_SET_NO><REV_AT_EPOCH>565</REV_AT_EPOCH><BSTAR>0</BSTAR><MEAN_MOTION_DOT>.16E-6</MEAN_MOTION_DOT><MEAN_MOTION_DDOT>0</MEAN_MOTION_DDOT></tleParameters></data></segment></body></omm>
<omm id="CCSDS_OMM_VERS" version="2.0">
<header><CREATION_DATE/><ORIGINATOR/></header><body><segment><metadata><OBJECT_NAME>ONEWEB-0557</OBJECT_NAME><OBJECT_ID>2023-043N</OBJECT_ID><CENTER_NAME>EARTH</CENTER_NAME><REF_FRAME>TEME</REF_FRAME><TIME_SYSTEM>UTC</TIME_SYSTEM><MEAN_ELEMENT_THEORY>SGP4</MEAN_ELEMENT_THEORY></metadata><data><meanElements><EPOCH>2023-11-01T22:00:00.999936</EPOCH><MEAN_MOTION>13.78310851</MEAN_MOTION><ECCENTRICITY>.0004104</ECCENTRICITY><INCLINATION>87.5990</INCLINATION><RA_OF_ASC_NODE>60.0782</RA_OF_ASC_NODE><ARG_OF_PERICENTER>97.0349</ARG_OF_PERICENTER><MEAN_ANOMALY>8.0588</MEAN_ANOMALY></meanElements><tleParameters><EPHEMERIS_TYPE>0</EPHEMERIS_TYPE><CLASSIFICATION_TYPE>U</CLASSIFICATION_TYPE><NORAD_CAT_ID>56058</NORAD_CAT_ID><ELEMENT_SET_NO>999</ELEMENT_SET_NO><REV_AT_EPOCH>568</REV_AT_EPOCH><BSTAR>0</BSTAR><MEAN_MOTION_DOT>.16E-6</MEAN_MOTION_DOT><MEAN_MOTION_DDOT>0</MEAN_MOTION_DDOT></tleParameters></data></segment></body></omm>
<omm id="CCSDS_OMM_VERS" version="2.0">
<header><CREATION_DATE/><ORIGINATOR/></header><body><segment><metadata><OBJECT_NAME>ONEWEB-0558</OBJECT_NAME><OBJECT_ID>2023-043P</OBJECT_ID><CENTER_NAME>EARTH</CENTER_NAME><REF_FRAME>TEME</REF_FRAME><TIME_SYSTEM>UTC</TIME_SYSTEM><MEAN_ELEMENT_THEORY>SGP4</MEAN_ELEMENT_THEORY></metadata><data><meanElements><EPOCH>2023-11-01T21:34:32.119104</EPOCH><MEAN_MOTION>13.21828507</MEAN_MOTION><ECCENTRICITY>.0001173</ECCENTRICITY><INCLINATION>87.9230</INCLINATION><RA_OF_ASC_NODE>74.7516</RA_OF_ASC_NODE><ARG_OF_PERICENTER>84.2076</ARG_OF_PERICENTER><MEAN_ANOMALY>275.9191</MEAN_ANOMALY></meanElements><tleParameters><EPHEMERIS_TYPE>0</EPHEMERIS_TYPE><CLASSIFICATION_TYPE>U</CLASSIFICATION_TYPE><NORAD_CAT_ID>56059</NORAD_CAT_ID><ELEMENT_SET_NO>999</ELEMENT_SET_NO><REV_AT_EPOCH>3164</REV_AT_EPOCH><BSTAR>.33175E-4</BSTAR><MEAN_MOTION_DOT>.27E-6</MEAN_MOTION_DOT><MEAN_MOTION_DDOT>0</MEAN_MOTION_DDOT></tleParameters></data></segment></body></omm>
<omm id="CCSDS_OMM_VERS" version="2.0">
<header><CREATION_DATE/><ORIGINATOR/></header><body><segment><metadata><OBJECT_NAME>ONEWEB-0559</OBJECT_NAME><OBJECT_ID>2023-043Q</OBJECT_ID><CENTER_NAME>EARTH</CENTER_NAME><REF_FRAME>TEME</REF_FRAME><TIME_SYSTEM>UTC</TIME_SYSTEM><MEAN_ELEMENT_THEORY>SGP4</MEAN_ELEMENT_THEORY></metadata><data><meanElements><EPOCH>2023-11-01T21:18:37.334304</EPOCH><MEAN_MOTION>13.21822076</MEAN_MOTION><ECCENTRICITY>.0001767</ECCENTRICITY><INCLINATION>87.9229</INCLINATION><RA_OF_ASC_NODE>74.7548</RA_OF_ASC_NODE><ARG_OF_PERICENTER>74.1784</ARG_OF_PERICENTER><MEAN_ANOMALY>285.9545</MEAN_ANOMALY></meanElements><tleParameters><EPHEMERIS_TYPE>0</EPHEMERIS_TYPE><CLASSIFICATION_TYPE>U</CLASSIFICATION_TYPE><NORAD_CAT_ID>56060</NORAD_CAT_ID><ELEMENT_SET_NO>999</ELEMENT_SET_NO><REV_AT_EPOCH>3165</REV_AT_EPOCH><BSTAR>-.29763E-5</BSTAR><MEAN_MOTION_DOT>.12E-6</MEAN_MOTION_DOT><MEAN_MOTION_DDOT>0</MEAN_MOTION_DDOT></tleParameters></data></segment></body></omm>
<omm id="CCSDS_OMM_VERS" version="2.0">
<header><CREATION_DATE/><ORIGINATOR/></header><body><segment><metadata><OBJECT_NAME>ONEWEB-0566</OBJECT_NAME><OBJECT_ID>2023-043R</OBJECT_ID><CENTER_NAME>EARTH</CENTER_NAME><REF_FRAME>TEME</REF_FRAME><TIME_SYSTEM>UTC</TIME_SYSTEM><MEAN_ELEMENT_THEORY>SGP4</MEAN_ELEMENT_THEORY></metadata><data><meanElements><EPOCH>2023-11-01T21:09:32.720544</EPOCH><MEAN_MOTION>13.21824927</MEAN_MOTION><ECCENTRICITY>.0001094</ECCENTRICITY><INCLINATION>87.9228</INCLINATION><RA_OF_ASC_NODE>74.7583</RA_OF_ASC_NODE><ARG_OF_PERICENTER>72.2984</ARG_OF_PERICENTER><MEAN_ANOMALY>287.8269</MEAN_ANOMALY></meanElements><tleParameters><EPHEMERIS_TYPE>0</EPHEMERIS_TYPE><CLASSIFICATION_TYPE>U</CLASSIFICATION_TYPE><NORAD_CAT_ID>56061</NORAD_CAT_ID><ELEMENT_SET_NO>999</ELEMENT_SET_NO><REV_AT_EPOCH>3163</REV_AT_EPOCH><BSTAR>.15197E-3</BSTAR><MEAN_MOTION_DOT>.76E-6</MEAN_MOTION_DOT><MEAN_MOTION_DDOT>0</MEAN_MOTION_DDOT></tleParameters></data></segment></body></omm>
<omm id="CCSDS_OMM_VERS" version="2.0">
<header><CREATION_DATE/><ORIGINATOR/></header><body><segment><metadata><OBJECT_NAME>ONEWEB-0568</OBJECT_NAME><OBJECT_ID>2023-043S</OBJECT_ID><CENTER_NAME>EARTH</CENTER_NAME><REF_FRAME>TEME</REF_FRAME><TIME_SYSTEM>UTC</TIME_SYSTEM><MEAN_ELEMENT_THEORY>SGP4</MEAN_ELEMENT_THEORY></metadata><data><meanElements><EPOCH>2023-11-01T22:00:00.999936</EPOCH><MEAN_MOTION>13.83671672</MEAN_MOTION><ECCENTRICITY>.0004303</ECCENTRICITY><INCLINATION>87.5712</INCLINATION><RA_OF_ASC_NODE>60.1310</RA_OF_ASC_NODE><ARG_OF_PERICENTER>86.4821</ARG_OF_PERICENTER><MEAN_ANOMALY>348.9335</MEAN_ANOMALY></meanElements><tleParameters><EPHEMERIS_TYPE>0</EPHEMERIS_TYPE><CLASSIFICATION_TYPE>U</CLASSIFICATION_TYPE><NORAD_CAT_ID>56062</NORAD_CAT_ID><ELEMENT_SET_NO>999</ELEMENT_SET_NO><REV_AT_EPOCH>548</REV_AT_EPOCH><BSTAR>0</BSTAR><MEAN_MOTION_DOT>.16E-6</MEAN_MOTION_DOT><MEAN_MOTION_DDOT>0</MEAN_MOTION_DDOT></tleParameters></data></segment></body></omm>
<omm id="CCSDS_OMM_VERS" version="2.0">
<header><CREATION_DATE/><ORIGINATOR/></header><body><segment><metadata><OBJECT_NAME>ONEWEB-0574</OBJECT_NAME><OBJECT_ID>2023-043T</OBJECT_ID><CENTER_NAME>EARTH</CENTER_NAME><REF_FRAME>TEME</REF_FRAME><TIME_SYSTEM>UTC</TIME_SYSTEM><MEAN_ELEMENT_THEORY>SGP4</MEAN_ELEMENT_THEORY></metadata><data><meanElements><EPOCH>2023-11-01T21:00:27.945216</EPOCH><MEAN_MOTION>13.21828794</MEAN_MOTION><ECCENTRICITY>.0001536</ECCENTRICITY><INCLINATION>87.9230</INCLINATION><RA_OF_ASC_NODE>74.7560</RA_OF_ASC_NODE><ARG_OF_PERICENTER>100.2097</ARG_OF_PERICENTER><MEAN_ANOMALY>259.9210</MEAN_ANOMALY></meanElements><tleParameters><EPHEMERIS_TYPE>0</EPHEMERIS_TYPE><CLASSIFICATION_TYPE>U</CLASSIFICATION_TYPE><NORAD_CAT_ID>56063</NORAD_CAT_ID><ELEMENT_SET_NO>999</ELEMENT_SET_NO><REV_AT_EPOCH>3167</REV_AT_EPOCH><BSTAR>.29663E-4</BSTAR><MEAN_MOTION_DOT>.25E-6</MEAN_MOTION_DOT><MEAN_MOTION_DDOT>0</MEAN_MOTION_DDOT></tleParameters></data></segment></body></omm>
<omm id="CCSDS_OMM_VERS" version="2.0">
<header><CREATION_DATE/><ORIGINATOR/></header><body><segment><metadata><OBJECT_NAME>ONEWEB-0575</OBJECT_NAME><OBJECT_ID>2023-043U</OBJECT_ID><CENTER_NAME>EARTH</CENTER_NAME><REF_FRAME>TEME</REF_FRAME><TIME_SYSTEM>UTC</TIME_SYSTEM><MEAN_ELEMENT_THEORY>SGP4</MEAN_ELEMENT_THEORY></metadata><data><meanElements><EPOCH>2023-11-01T22:00:00.999936</EPOCH><MEAN_MOTION>13.82100442</MEAN_MOTION><ECCENTRICITY>.0001959</ECCENTRICITY><INCLINATION>87.5774</INCLINATION><RA_OF_ASC_NODE>60.1523</RA_OF_ASC_NODE><ARG_OF_PERICENTER>69.0745</ARG_OF_PERICENTER><MEAN_ANOMALY>177.2351</MEAN_ANOMALY></meanElements><tleParameters><EPHEMERIS_TYPE>0</EPHEMERIS_TYPE><CLASSIFICATION_TYPE>U</CLASSIFICATION_TYPE><NORAD_CAT_ID>56064</NORAD_CAT_ID><ELEMENT_SET_NO>999</ELEMENT_SET_NO><REV_AT_EPOCH>568</REV_AT_EPOCH><BSTAR>0</BSTAR><MEAN_MOTION_DOT>.16E-6</MEAN_MOTION_DOT><MEAN_MOTION_DDOT>0</MEAN_MOTION_DDOT></tleParameters></data></segment></body></omm>
<omm id="CCSDS_OMM_VERS" version="2.0">
<header><CREATION_DATE/><ORIGINATOR/></header><body><segment><metadata><OBJECT_NAME>ONEWEB-0576</OBJECT_NAME><OBJECT_ID>2023-043V</OBJECT_ID><CENTER_NAME>EARTH</CENTER_NAME><REF_FRAME>TEME</REF_FRAME><TIME_SYSTEM>UTC</TIME_SYSTEM><MEAN_ELEMENT_THEORY>SGP4</MEAN_ELEMENT_THEORY></metadata><data><meanElements><EPOCH>2023-11-01T22:00:00.999936</EPOCH><MEAN_MOTION>13.80376202</MEAN_MOTION><ECCENTRICITY>.000301</ECCENTRICITY><INCLINATION>87.5865</INCLINATION><RA_OF_ASC_NODE>60.1281</RA_OF_ASC_NODE><ARG_OF_PERICENTER>60.2667</ARG_OF_PERICENTER><MEAN_ANOMALY>136.0111</MEAN_ANOMALY></meanElements><tleParameters><EPHEMERIS_TYPE>0</EPHEMERIS_TYPE><CLASSIFICATION_TYPE>U</CLASSIFICATION_TYPE><NORAD_CAT_ID>56065</NORAD_CAT_ID><ELEMENT_SET_NO>999</ELEMENT_SET_NO><REV_AT_EPOCH>566</REV_AT_EPOCH><BSTAR>0</BSTAR><MEAN_MOTION_DOT>.16E-6</MEAN_MOTION_DOT><MEAN_MOTION_DDOT>0</MEAN_MOTION_DDOT></tleParameters></data></segment></body></omm>
<omm id="CCSDS_OMM_VERS" version="2.0">
<header><CREATION_DATE/><ORIGINATOR/></header><body><segment><metadata><OBJECT_NAME>ONEWEB-0577</OBJECT_NAME><OBJECT_ID>2023-043W</OBJECT_ID><CENTER_NAME>EARTH</CENTER_NAME><REF_FRAME>TEME</REF_FRAME><TIME_SYSTEM>UTC</TIME_SYSTEM><MEAN_ELEMENT_THEORY>SGP4</MEAN_ELEMENT_THEORY></metadata><data><meanElements><EPOCH>2023-11-01T22:00:00.999936</EPOCH><MEAN_MOTION>13.83337785</MEAN_MOTION><ECCENTRICITY>.0004276</ECCENTRICITY><INCLINATION>87.5689</INCLINATION><RA_OF_ASC_NODE>60.1845</RA_OF_ASC_NODE><ARG_OF_PERICENTER>92.1818</ARG_OF_PERICENTER><MEAN_ANOMALY>72.3349</MEAN_ANOMALY></meanElements><tleParameters><EPHEMERIS_TYPE>0</EPHEMERIS_TYPE><CLASSIFICATION_TYPE>U</CLASSIFICATION_TYPE><NORAD_CAT_ID>56066</NORAD_CAT_ID><ELEMENT_SET_NO>999</ELEMENT_SET_NO><REV_AT_EPOCH>561</REV_AT_EPOCH><BSTAR>0</BSTAR><MEAN_MOTION_DOT>.16E-6</MEAN_MOTION_DOT><MEAN_MOTION_DDOT>0</MEAN_MOTION_DDOT></tleParameters></data></segment></body></omm>

</ndm>
